{
  "type": "FeatureCollection",
  "features": [
    {
      "type": "Feature",
      "properties": {
        "nombre": "KML — Centro - A",
        "tipo": "trazado_kml"
      },
      "geometry": {
        "type": "LineString",
        "coordinates": [
          [
            -106.5287857,
            31.7512155
          ],
          [
            -106.5278363,
            31.7509175
          ],
          [
            -106.524178,
            31.74969
          ],
          [
            -106.520858,
            31.748756
          ],
          [
            -106.516985,
            31.747575
          ],
          [
            -106.507663,
            31.744806
          ],
          [
            -106.504801,
            31.743915
          ],
          [
            -106.504956,
            31.743308
          ],
          [
            -106.504118,
            31.743066
          ],
          [
            -106.500061,
            31.741893
          ],
          [
            -106.49801,
            31.741265
          ],
          [
            -106.495263,
            31.740461
          ],
          [
            -106.492726,
            31.73974
          ],
          [
            -106.49152,
            31.739418
          ],
          [
            -106.491463,
            31.739453
          ],
          [
            -106.490776,
            31.74113
          ],
          [
            -106.488878,
            31.74586
          ],
          [
            -106.488846,
            31.74593
          ],
          [
            -106.488705,
            31.746215
          ],
          [
            -106.488611,
            31.74648
          ],
          [
            -106.488635,
            31.746525
          ],
          [
            -106.488935,
            31.746808
          ],
          [
            -106.488818,
            31.747068
          ],
          [
            -106.488428,
            31.747193
          ],
          [
            -106.485995,
            31.747095
          ],
          [
            -106.4816694,
            31.7476288
          ],
          [
            -106.473138,
            31.749768
          ],
          [
            -106.471101,
            31.750828
          ],
          [
            -106.4697933,
            31.7525006
          ],
          [
            -106.4677661,
            31.7579165
          ],
          [
            -106.466683,
            31.75899
          ],
          [
            -106.4538706,
            31.7642314
          ],
          [
            -106.4510276,
            31.763929
          ],
          [
            -106.441586,
            31.757986
          ],
          [
            -106.43905,
            31.756356
          ],
          [
            -106.4350904,
            31.7543774
          ],
          [
            -106.431131,
            31.753165
          ],
          [
            -106.4289399,
            31.7530344
          ],
          [
            -106.4218576,
            31.7516918
          ],
          [
            -106.4171359,
            31.7502578
          ],
          [
            -106.406806,
            31.744598
          ],
          [
            -106.396425,
            31.73902
          ],
          [
            -106.389161,
            31.734931
          ],
          [
            -106.38921,
            31.734818
          ],
          [
            -106.391943,
            31.731215
          ],
          [
            -106.392893,
            31.729401
          ],
          [
            -106.393556,
            31.724688
          ],
          [
            -106.393656,
            31.724638
          ],
          [
            -106.395825,
            31.724688
          ],
          [
            -106.3959147,
            31.7235285
          ],
          [
            -106.3968021,
            31.7217026
          ]
        ]
      }
    },
    {
      "type": "Feature",
      "properties": {
        "nombre": "Recorrido real — Centro - A — 9190 — 2026-07-09",
        "tipo": "recorrido_real",
        "unidad": "9190",
        "fecha": "2026-07-09",
        "routeMatchPct": 58.82352941176471,
        "corridorPrecisionPct": 40.714285714285715,
        "frechetKm": 8.446123651019414
      },
      "geometry": {
        "type": "LineString",
        "coordinates": [
          [
            -106.440903,
            31.737645
          ],
          [
            -106.441013,
            31.737676
          ],
          [
            -106.44142,
            31.737618
          ],
          [
            -106.445738,
            31.73704
          ],
          [
            -106.455368,
            31.737501
          ],
          [
            -106.46453,
            31.738065
          ],
          [
            -106.472038,
            31.738528
          ],
          [
            -106.477206,
            31.738836
          ],
          [
            -106.479751,
            31.738983
          ],
          [
            -106.48338,
            31.738976
          ],
          [
            -106.49302,
            31.740498
          ],
          [
            -106.501931,
            31.743186
          ],
          [
            -106.506345,
            31.744498
          ],
          [
            -106.510281,
            31.745615
          ],
          [
            -106.517778,
            31.747861
          ],
          [
            -106.52243,
            31.74923
          ],
          [
            -106.52548,
            31.750111
          ],
          [
            -106.528495,
            31.751146
          ],
          [
            -106.530345,
            31.75139
          ],
          [
            -106.530641,
            31.750775
          ],
          [
            -106.531213,
            31.74972
          ],
          [
            -106.531763,
            31.749923
          ],
          [
            -106.531773,
            31.74994
          ],
          [
            -106.531781,
            31.75
          ],
          [
            -106.53153,
            31.750576
          ],
          [
            -106.53153,
            31.750576
          ],
          [
            -106.53153,
            31.750576
          ],
          [
            -106.53153,
            31.750576
          ],
          [
            -106.53153,
            31.750576
          ],
          [
            -106.53153,
            31.750576
          ],
          [
            -106.531501,
            31.750653
          ],
          [
            -106.531408,
            31.750793
          ],
          [
            -106.531205,
            31.750996
          ],
          [
            -106.529943,
            31.751455
          ],
          [
            -106.529446,
            31.751358
          ],
          [
            -106.527341,
            31.750746
          ],
          [
            -106.523933,
            31.749663
          ],
          [
            -106.521326,
            31.748893
          ],
          [
            -106.518885,
            31.748163
          ],
          [
            -106.515723,
            31.747218
          ],
          [
            -106.513721,
            31.74663
          ],
          [
            -106.51041,
            31.745625
          ],
          [
            -106.506963,
            31.744626
          ],
          [
            -106.504818,
            31.743985
          ],
          [
            -106.50479,
            31.74391
          ],
          [
            -106.504988,
            31.743411
          ],
          [
            -106.504966,
            31.743366
          ],
          [
            -106.502303,
            31.742576
          ],
          [
            -106.501441,
            31.742341
          ],
          [
            -106.498905,
            31.741555
          ],
          [
            -106.495445,
            31.740533
          ],
          [
            -106.493233,
            31.739878
          ],
          [
            -106.491478,
            31.739448
          ],
          [
            -106.491225,
            31.739995
          ],
          [
            -106.48946,
            31.744381
          ],
          [
            -106.488671,
            31.7463
          ],
          [
            -106.488593,
            31.74645
          ],
          [
            -106.488606,
            31.746543
          ],
          [
            -106.488893,
            31.74695
          ],
          [
            -106.488703,
            31.747113
          ],
          [
            -106.48426,
            31.74716
          ],
          [
            -106.473313,
            31.749721
          ],
          [
            -106.469765,
            31.752471
          ],
          [
            -106.46759,
            31.758026
          ],
          [
            -106.465488,
            31.7596
          ],
          [
            -106.462615,
            31.760698
          ],
          [
            -106.45277,
            31.76421
          ],
          [
            -106.451778,
            31.763981
          ],
          [
            -106.44248,
            31.758646
          ],
          [
            -106.432448,
            31.753385
          ],
          [
            -106.427196,
            31.751725
          ],
          [
            -106.4261,
            31.74773
          ],
          [
            -106.425248,
            31.742138
          ],
          [
            -106.425418,
            31.740766
          ],
          [
            -106.425331,
            31.740418
          ],
          [
            -106.425196,
            31.740376
          ],
          [
            -106.425,
            31.740385
          ],
          [
            -106.425,
            31.740385
          ],
          [
            -106.418485,
            31.737053
          ],
          [
            -106.417298,
            31.736268
          ],
          [
            -106.414915,
            31.733285
          ],
          [
            -106.413193,
            31.73241
          ],
          [
            -106.405198,
            31.726901
          ],
          [
            -106.398138,
            31.720108
          ],
          [
            -106.397826,
            31.71977
          ],
          [
            -106.397733,
            31.719843
          ],
          [
            -106.3969,
            31.721476
          ],
          [
            -106.396931,
            31.7215
          ],
          [
            -106.396978,
            31.721476
          ],
          [
            -106.396996,
            31.721438
          ],
          [
            -106.397005,
            31.7214
          ],
          [
            -106.397083,
            31.721243
          ],
          [
            -106.397126,
            31.721163
          ],
          [
            -106.397188,
            31.721045
          ],
          [
            -106.397188,
            31.721045
          ],
          [
            -106.397201,
            31.721025
          ],
          [
            -106.397246,
            31.720851
          ],
          [
            -106.397651,
            31.720065
          ],
          [
            -106.39775,
            31.720018
          ],
          [
            -106.397871,
            31.720046
          ],
          [
            -106.39904,
            31.721796
          ],
          [
            -106.405955,
            31.727646
          ],
          [
            -106.413718,
            31.732585
          ],
          [
            -106.420698,
            31.733255
          ],
          [
            -106.421783,
            31.733185
          ],
          [
            -106.424481,
            31.732855
          ],
          [
            -106.424545,
            31.73273
          ],
          [
            -106.42454,
            31.730395
          ],
          [
            -106.424576,
            31.72175
          ],
          [
            -106.424765,
            31.720895
          ],
          [
            -106.43094,
            31.720923
          ],
          [
            -106.436545,
            31.720995
          ],
          [
            -106.438531,
            31.72107
          ],
          [
            -106.438563,
            31.721103
          ],
          [
            -106.438546,
            31.721251
          ],
          [
            -106.438373,
            31.722378
          ],
          [
            -106.438355,
            31.722733
          ],
          [
            -106.438451,
            31.722778
          ],
          [
            -106.439861,
            31.723073
          ],
          [
            -106.439868,
            31.723151
          ],
          [
            -106.439741,
            31.723655
          ],
          [
            -106.439741,
            31.723658
          ],
          [
            -106.439741,
            31.723658
          ],
          [
            -106.439741,
            31.723658
          ],
          [
            -106.439741,
            31.723658
          ],
          [
            -106.439741,
            31.723658
          ],
          [
            -106.439741,
            31.723658
          ],
          [
            -106.439741,
            31.723658
          ],
          [
            -106.439741,
            31.723658
          ],
          [
            -106.439741,
            31.723658
          ],
          [
            -106.439741,
            31.723658
          ],
          [
            -106.439741,
            31.723658
          ],
          [
            -106.439741,
            31.723658
          ],
          [
            -106.439741,
            31.723658
          ],
          [
            -106.439741,
            31.723658
          ],
          [
            -106.439741,
            31.723658
          ],
          [
            -106.439741,
            31.723658
          ],
          [
            -106.439741,
            31.723658
          ],
          [
            -106.439741,
            31.723658
          ],
          [
            -106.439741,
            31.723658
          ]
        ]
      }
    }
  ]
}