{
  "type": "FeatureCollection",
  "features": [
    {
      "type": "Feature",
      "properties": {
        "nombre": "KML — Huertas - B",
        "tipo": "trazado_kml"
      },
      "geometry": {
        "type": "LineString",
        "coordinates": [
          [
            -106.4653696,
            31.6154502
          ],
          [
            -106.4642288,
            31.6146694
          ],
          [
            -106.4633777,
            31.6139799
          ],
          [
            -106.4635672,
            31.6138031
          ],
          [
            -106.46362,
            31.613605
          ],
          [
            -106.4633781,
            31.6133843
          ],
          [
            -106.4642092,
            31.6127287
          ],
          [
            -106.464225,
            31.61261
          ],
          [
            -106.463455,
            31.611941
          ],
          [
            -106.462898,
            31.611385
          ],
          [
            -106.461121,
            31.609753
          ],
          [
            -106.460515,
            31.609213
          ],
          [
            -106.4597214,
            31.6098909
          ],
          [
            -106.4595467,
            31.6098157
          ],
          [
            -106.45933,
            31.609821
          ],
          [
            -106.45929,
            31.609896
          ],
          [
            -106.4589938,
            31.6099179
          ],
          [
            -106.4586221,
            31.6113186
          ],
          [
            -106.4585327,
            31.611384
          ],
          [
            -106.458428,
            31.611413
          ],
          [
            -106.4583872,
            31.6116829
          ],
          [
            -106.4580116,
            31.6134401
          ],
          [
            -106.457496,
            31.6129893
          ],
          [
            -106.453145,
            31.609006
          ],
          [
            -106.4522845,
            31.6082462
          ],
          [
            -106.4521728,
            31.6083186
          ],
          [
            -106.4531375,
            31.6133759
          ],
          [
            -106.453647,
            31.6162822
          ],
          [
            -106.453722,
            31.6173658
          ],
          [
            -106.4536011,
            31.6189039
          ],
          [
            -106.4531423,
            31.6207983
          ],
          [
            -106.451868,
            31.625633
          ],
          [
            -106.4529208,
            31.6264396
          ],
          [
            -106.4536252,
            31.6269204
          ],
          [
            -106.4543832,
            31.6273464
          ],
          [
            -106.4551971,
            31.6277749
          ],
          [
            -106.4558715,
            31.6283266
          ],
          [
            -106.4565329,
            31.6279537
          ],
          [
            -106.4570119,
            31.6275808
          ],
          [
            -106.4576072,
            31.627011
          ],
          [
            -106.4578405,
            31.6269636
          ],
          [
            -106.458063,
            31.627035
          ],
          [
            -106.458771,
            31.627576
          ],
          [
            -106.459252,
            31.6271384
          ],
          [
            -106.4593575,
            31.6271209
          ],
          [
            -106.4596171,
            31.6268673
          ],
          [
            -106.4601922,
            31.6265532
          ],
          [
            -106.4605361,
            31.6264122
          ],
          [
            -106.4607833,
            31.6262163
          ],
          [
            -106.4616007,
            31.6269239
          ],
          [
            -106.4618291,
            31.6271785
          ],
          [
            -106.4620952,
            31.6276751
          ],
          [
            -106.4616475,
            31.6284229
          ],
          [
            -106.4611916,
            31.6292619
          ],
          [
            -106.4624164,
            31.6302299
          ],
          [
            -106.4638845,
            31.6312747
          ],
          [
            -106.4648425,
            31.6319257
          ],
          [
            -106.4657898,
            31.6326589
          ],
          [
            -106.4666697,
            31.6333476
          ],
          [
            -106.466981,
            31.633543
          ],
          [
            -106.468191,
            31.632548
          ],
          [
            -106.4688096,
            31.6320771
          ],
          [
            -106.4700171,
            31.6327386
          ],
          [
            -106.4729189,
            31.6344483
          ],
          [
            -106.4737929,
            31.6349574
          ],
          [
            -106.4742314,
            31.6351795
          ],
          [
            -106.4743251,
            31.6351503
          ],
          [
            -106.4749715,
            31.6344367
          ],
          [
            -106.4751563,
            31.6347371
          ],
          [
            -106.475423,
            31.6347542
          ],
          [
            -106.4755428,
            31.634863
          ],
          [
            -106.4747206,
            31.6354405
          ],
          [
            -106.4741969,
            31.6362386
          ],
          [
            -106.4739387,
            31.637402
          ],
          [
            -106.4740425,
            31.6378926
          ],
          [
            -106.4742161,
            31.6383696
          ],
          [
            -106.4743655,
            31.6388351
          ],
          [
            -106.474633,
            31.6392641
          ],
          [
            -106.4761307,
            31.6402641
          ],
          [
            -106.4787404,
            31.6419155
          ],
          [
            -106.4794284,
            31.6429421
          ],
          [
            -106.479692,
            31.6435787
          ],
          [
            -106.479698,
            31.6442519
          ],
          [
            -106.4789308,
            31.6458172
          ],
          [
            -106.477713,
            31.647346
          ],
          [
            -106.4772366,
            31.6497751
          ],
          [
            -106.4777044,
            31.6535925
          ],
          [
            -106.477701,
            31.654931
          ],
          [
            -106.4771708,
            31.655062
          ],
          [
            -106.4767425,
            31.6552706
          ],
          [
            -106.4761515,
            31.656213
          ],
          [
            -106.4761459,
            31.6566334
          ],
          [
            -106.4760177,
            31.6567468
          ],
          [
            -106.4742333,
            31.6574969
          ],
          [
            -106.4737917,
            31.6578445
          ],
          [
            -106.47357,
            31.6582013
          ],
          [
            -106.4735808,
            31.658589
          ],
          [
            -106.473716,
            31.658848
          ],
          [
            -106.4751406,
            31.6600576
          ],
          [
            -106.4752266,
            31.6602857
          ],
          [
            -106.4752107,
            31.6605138
          ],
          [
            -106.4751172,
            31.6607093
          ],
          [
            -106.4742969,
            31.6616818
          ],
          [
            -106.4736268,
            31.6624032
          ],
          [
            -106.4733392,
            31.6625988
          ],
          [
            -106.473073,
            31.662598
          ],
          [
            -106.472613,
            31.662596
          ],
          [
            -106.472446,
            31.662885
          ],
          [
            -106.472531,
            31.663055
          ],
          [
            -106.4735854,
            31.6632295
          ],
          [
            -106.4818911,
            31.6640327
          ],
          [
            -106.48259,
            31.6640779
          ],
          [
            -106.4825813,
            31.6641149
          ],
          [
            -106.4819303,
            31.6640674
          ],
          [
            -106.479829,
            31.6638667
          ],
          [
            -106.4779315,
            31.6636774
          ],
          [
            -106.4735951,
            31.6632002
          ],
          [
            -106.473208,
            31.662838
          ],
          [
            -106.473073,
            31.662598
          ],
          [
            -106.472613,
            31.662596
          ],
          [
            -106.472446,
            31.662885
          ],
          [
            -106.4727586,
            31.6633793
          ],
          [
            -106.4729203,
            31.6642428
          ],
          [
            -106.4732215,
            31.6652342
          ],
          [
            -106.4739933,
            31.6679511
          ],
          [
            -106.4748214,
            31.6708002
          ],
          [
            -106.4748315,
            31.6710452
          ],
          [
            -106.4719168,
            31.6709274
          ],
          [
            -106.4702793,
            31.6708469
          ],
          [
            -106.4689852,
            31.6707619
          ],
          [
            -106.46762,
            31.670715
          ],
          [
            -106.4649477,
            31.6706273
          ],
          [
            -106.463853,
            31.6706062
          ],
          [
            -106.4628655,
            31.6705213
          ],
          [
            -106.4619893,
            31.6704577
          ],
          [
            -106.4615315,
            31.6702846
          ],
          [
            -106.4591103,
            31.6700956
          ],
          [
            -106.456657,
            31.6699338
          ],
          [
            -106.455045,
            31.669835
          ],
          [
            -106.454528,
            31.669798
          ],
          [
            -106.4544129,
            31.6707424
          ],
          [
            -106.4543098,
            31.671308
          ],
          [
            -106.4541798,
            31.6717184
          ],
          [
            -106.4539788,
            31.6722423
          ],
          [
            -106.4538905,
            31.672821
          ],
          [
            -106.4533601,
            31.672805
          ],
          [
            -106.4533434,
            31.6736881
          ],
          [
            -106.4532653,
            31.6744939
          ],
          [
            -106.4532564,
            31.67675
          ],
          [
            -106.4513991,
            31.6766545
          ],
          [
            -106.4484646,
            31.6765404
          ],
          [
            -106.4477207,
            31.6765045
          ],
          [
            -106.4469136,
            31.6763939
          ],
          [
            -106.4461025,
            31.6762643
          ],
          [
            -106.445765,
            31.6762004
          ],
          [
            -106.4451668,
            31.6764155
          ],
          [
            -106.4448354,
            31.6764569
          ],
          [
            -106.4440642,
            31.6764252
          ],
          [
            -106.441382,
            31.6763407
          ],
          [
            -106.4394508,
            31.676256
          ],
          [
            -106.438528,
            31.676195
          ],
          [
            -106.4382011,
            31.676211
          ],
          [
            -106.4374937,
            31.6790667
          ],
          [
            -106.4364305,
            31.6790146
          ],
          [
            -106.4311119,
            31.6788248
          ],
          [
            -106.425061,
            31.678575
          ],
          [
            -106.424563,
            31.6785734
          ],
          [
            -106.424559,
            31.6841979
          ],
          [
            -106.4245552,
            31.688697
          ],
          [
            -106.4245347,
            31.6952775
          ],
          [
            -106.4245225,
            31.699263
          ],
          [
            -106.4245061,
            31.7017575
          ],
          [
            -106.4244901,
            31.7043789
          ],
          [
            -106.424509,
            31.7094436
          ],
          [
            -106.4244932,
            31.713597
          ],
          [
            -106.4244726,
            31.7168224
          ],
          [
            -106.4245046,
            31.722013
          ],
          [
            -106.4244637,
            31.7288245
          ],
          [
            -106.4244567,
            31.732149
          ],
          [
            -106.4245014,
            31.7328919
          ],
          [
            -106.4210542,
            31.733286
          ],
          [
            -106.4170773,
            31.7331349
          ],
          [
            -106.414787,
            31.7330766
          ],
          [
            -106.4139867,
            31.7326067
          ],
          [
            -106.4129238,
            31.7323601
          ],
          [
            -106.4109759,
            31.731055
          ],
          [
            -106.4060699,
            31.7276387
          ],
          [
            -106.4007136,
            31.7238116
          ],
          [
            -106.4002524,
            31.7233592
          ],
          [
            -106.3978413,
            31.7197447
          ],
          [
            -106.397731,
            31.719813
          ],
          [
            -106.3970064,
            31.7212915
          ]
        ]
      }
    },
    {
      "type": "Feature",
      "properties": {
        "nombre": "Recorrido real — Huertas - B — 9387 — 2026-07-23",
        "tipo": "recorrido_real",
        "unidad": "9387",
        "fecha": "2026-07-23",
        "routeMatchPct": 45.83333333333333,
        "corridorPrecisionPct": 100,
        "frechetKm": 5.7301146284334745
      },
      "geometry": {
        "type": "LineString",
        "coordinates": [
          [
            -106.476618,
            31.65543
          ],
          [
            -106.476208,
            31.655995
          ],
          [
            -106.476086,
            31.656303
          ],
          [
            -106.476073,
            31.65668
          ],
          [
            -106.47438,
            31.657381
          ],
          [
            -106.47351,
            31.658356
          ],
          [
            -106.473716,
            31.658885
          ],
          [
            -106.475208,
            31.660378
          ],
          [
            -106.474671,
            31.661203
          ],
          [
            -106.474213,
            31.6617
          ],
          [
            -106.473118,
            31.662603
          ],
          [
            -106.472525,
            31.662676
          ],
          [
            -106.472515,
            31.662998
          ],
          [
            -106.472656,
            31.663121
          ],
          [
            -106.472918,
            31.66319
          ],
          [
            -106.473601,
            31.663238
          ],
          [
            -106.479181,
            31.663813
          ],
          [
            -106.482611,
            31.664126
          ],
          [
            -106.482578,
            31.664123
          ],
          [
            -106.48249,
            31.66414
          ],
          [
            -106.482493,
            31.664168
          ],
          [
            -106.48246,
            31.664093
          ],
          [
            -106.480066,
            31.66383
          ],
          [
            -106.479585,
            31.663808
          ],
          [
            -106.47715,
            31.663543
          ],
          [
            -106.473515,
            31.663126
          ],
          [
            -106.473366,
            31.663025
          ],
          [
            -106.472805,
            31.66253
          ],
          [
            -106.47255,
            31.662645
          ],
          [
            -106.472471,
            31.662886
          ],
          [
            -106.473385,
            31.666173
          ],
          [
            -106.47452,
            31.670111
          ],
          [
            -106.47452,
            31.670113
          ],
          [
            -106.474725,
            31.671003
          ],
          [
            -106.474648,
            31.671
          ],
          [
            -106.474456,
            31.670966
          ],
          [
            -106.470711,
            31.670808
          ],
          [
            -106.466225,
            31.670605
          ],
          [
            -106.460375,
            31.67012
          ],
          [
            -106.45522,
            31.669805
          ],
          [
            -106.454556,
            31.669788
          ],
          [
            -106.45451,
            31.669883
          ],
          [
            -106.45389,
            31.672775
          ],
          [
            -106.453833,
            31.67285
          ],
          [
            -106.45338,
            31.67284
          ],
          [
            -106.453203,
            31.675388
          ],
          [
            -106.452993,
            31.676648
          ],
          [
            -106.450836,
            31.676503
          ],
          [
            -106.446398,
            31.67619
          ],
          [
            -106.445941,
            31.676123
          ],
          [
            -106.442896,
            31.67628
          ],
          [
            -106.438513,
            31.676135
          ],
          [
            -106.438513,
            31.676135
          ],
          [
            -106.438081,
            31.676285
          ],
          [
            -106.437978,
            31.676713
          ],
          [
            -106.437281,
            31.679043
          ],
          [
            -106.433728,
            31.67886
          ],
          [
            -106.42642,
            31.67857
          ],
          [
            -106.424903,
            31.678566
          ],
          [
            -106.424431,
            31.67872
          ],
          [
            -106.424446,
            31.683663
          ],
          [
            -106.424433,
            31.689296
          ],
          [
            -106.424413,
            31.696003
          ],
          [
            -106.424416,
            31.701185
          ],
          [
            -106.424435,
            31.704016
          ],
          [
            -106.42443,
            31.712056
          ],
          [
            -106.424393,
            31.71592
          ],
          [
            -106.424375,
            31.718298
          ],
          [
            -106.424443,
            31.724035
          ],
          [
            -106.424331,
            31.729163
          ],
          [
            -106.424338,
            31.732216
          ],
          [
            -106.424143,
            31.732915
          ],
          [
            -106.416448,
            31.733013
          ],
          [
            -106.414966,
            31.732945
          ],
          [
            -106.414743,
            31.732915
          ],
          [
            -106.408203,
            31.72904
          ],
          [
            -106.400253,
            31.723178
          ],
          [
            -106.397841,
            31.719745
          ],
          [
            -106.397233,
            31.720881
          ],
          [
            -106.397005,
            31.721296
          ],
          [
            -106.396978,
            31.721353
          ],
          [
            -106.39705,
            31.721523
          ],
          [
            -106.397495,
            31.722133
          ],
          [
            -106.397545,
            31.722111
          ],
          [
            -106.39757,
            31.722071
          ],
          [
            -106.397521,
            31.722026
          ],
          [
            -106.397468,
            31.721945
          ],
          [
            -106.397385,
            31.72184
          ],
          [
            -106.397385,
            31.72184
          ],
          [
            -106.397385,
            31.72184
          ],
          [
            -106.397385,
            31.72184
          ],
          [
            -106.397385,
            31.72184
          ],
          [
            -106.397385,
            31.72184
          ],
          [
            -106.397385,
            31.72184
          ],
          [
            -106.397385,
            31.72184
          ],
          [
            -106.397385,
            31.72184
          ],
          [
            -106.397385,
            31.72184
          ],
          [
            -106.397411,
            31.721868
          ],
          [
            -106.397411,
            31.721868
          ],
          [
            -106.397411,
            31.721868
          ],
          [
            -106.397411,
            31.721868
          ],
          [
            -106.397411,
            31.721868
          ],
          [
            -106.397411,
            31.721868
          ],
          [
            -106.397411,
            31.721868
          ],
          [
            -106.397411,
            31.721868
          ],
          [
            -106.397411,
            31.721868
          ],
          [
            -106.397411,
            31.721868
          ],
          [
            -106.397411,
            31.72185
          ],
          [
            -106.397411,
            31.72185
          ],
          [
            -106.397411,
            31.72185
          ],
          [
            -106.397411,
            31.72185
          ],
          [
            -106.397411,
            31.72185
          ],
          [
            -106.397411,
            31.72185
          ],
          [
            -106.397411,
            31.72185
          ],
          [
            -106.397411,
            31.72185
          ],
          [
            -106.397411,
            31.72185
          ],
          [
            -106.397411,
            31.72185
          ],
          [
            -106.397411,
            31.72185
          ],
          [
            -106.397411,
            31.72185
          ],
          [
            -106.397411,
            31.72185
          ],
          [
            -106.397411,
            31.72185
          ],
          [
            -106.397411,
            31.72185
          ],
          [
            -106.397411,
            31.72185
          ],
          [
            -106.397411,
            31.72185
          ],
          [
            -106.397411,
            31.72185
          ],
          [
            -106.397411,
            31.72185
          ],
          [
            -106.397411,
            31.72185
          ],
          [
            -106.397411,
            31.72185
          ],
          [
            -106.397391,
            31.72186
          ],
          [
            -106.397095,
            31.7213
          ],
          [
            -106.39763,
            31.720133
          ],
          [
            -106.397751,
            31.719996
          ],
          [
            -106.397866,
            31.719985
          ],
          [
            -106.398478,
            31.720846
          ],
          [
            -106.406333,
            31.72787
          ],
          [
            -106.413043,
            31.732481
          ],
          [
            -106.414393,
            31.73283
          ],
          [
            -106.414393,
            31.73283
          ],
          [
            -106.416313,
            31.733111
          ],
          [
            -106.42221,
            31.733208
          ],
          [
            -106.422361,
            31.733183
          ],
          [
            -106.423836,
            31.733011
          ],
          [
            -106.423836,
            31.733011
          ],
          [
            -106.423878,
            31.733008
          ],
          [
            -106.424546,
            31.73288
          ],
          [
            -106.424601,
            31.73268
          ],
          [
            -106.424593,
            31.72916
          ],
          [
            -106.424581,
            31.724071
          ],
          [
            -106.424633,
            31.717991
          ],
          [
            -106.424638,
            31.713913
          ],
          [
            -106.42465,
            31.709785
          ]
        ]
      }
    }
  ]
}