{
  "type": "FeatureCollection",
  "features": [
    {
      "type": "Feature",
      "properties": {
        "nombre": "KML — San Jose - B",
        "tipo": "trazado_kml"
      },
      "geometry": {
        "type": "LineString",
        "coordinates": [
          [
            -106.3581612,
            31.5480499
          ],
          [
            -106.3569722,
            31.546495
          ],
          [
            -106.3555179,
            31.5445817
          ],
          [
            -106.354112,
            31.5426677
          ],
          [
            -106.3536649,
            31.5427483
          ],
          [
            -106.352526,
            31.5433353
          ],
          [
            -106.3509534,
            31.5462138
          ],
          [
            -106.3503784,
            31.5473113
          ],
          [
            -106.3493314,
            31.5493627
          ],
          [
            -106.3490933,
            31.5498213
          ],
          [
            -106.3483939,
            31.5506149
          ],
          [
            -106.3461417,
            31.5532787
          ],
          [
            -106.3444325,
            31.555287
          ],
          [
            -106.3439612,
            31.5558606
          ],
          [
            -106.3437793,
            31.5565725
          ],
          [
            -106.3436722,
            31.5578838
          ],
          [
            -106.34349,
            31.5586831
          ],
          [
            -106.3431202,
            31.5594908
          ],
          [
            -106.3415888,
            31.5612385
          ],
          [
            -106.341023,
            31.5619029
          ],
          [
            -106.3401669,
            31.5626214
          ],
          [
            -106.3391282,
            31.5635608
          ],
          [
            -106.3381056,
            31.5646876
          ],
          [
            -106.33636,
            31.566631
          ],
          [
            -106.334426,
            31.568833
          ],
          [
            -106.332693,
            31.570835
          ],
          [
            -106.3327613,
            31.570842
          ],
          [
            -106.335518,
            31.567726
          ],
          [
            -106.3386179,
            31.5642489
          ],
          [
            -106.3392781,
            31.5635128
          ],
          [
            -106.3402601,
            31.5626396
          ],
          [
            -106.3404112,
            31.562676
          ],
          [
            -106.3447861,
            31.5665957
          ],
          [
            -106.3485551,
            31.5699915
          ],
          [
            -106.3495498,
            31.5708528
          ],
          [
            -106.353975,
            31.5747991
          ],
          [
            -106.3578469,
            31.5789471
          ],
          [
            -106.3614652,
            31.5820702
          ],
          [
            -106.3629587,
            31.5832922
          ],
          [
            -106.3637794,
            31.5838391
          ],
          [
            -106.3649756,
            31.584188
          ],
          [
            -106.3662898,
            31.584482
          ],
          [
            -106.3668915,
            31.5847614
          ],
          [
            -106.3704974,
            31.5877049
          ],
          [
            -106.3720154,
            31.5890196
          ],
          [
            -106.37385,
            31.590974
          ],
          [
            -106.3740176,
            31.5912392
          ],
          [
            -106.3742126,
            31.5916367
          ],
          [
            -106.3744602,
            31.5924506
          ],
          [
            -106.3759849,
            31.5968181
          ],
          [
            -106.3764184,
            31.5981609
          ],
          [
            -106.3766459,
            31.5986358
          ],
          [
            -106.3779141,
            31.5999926
          ],
          [
            -106.3788105,
            31.6007832
          ],
          [
            -106.378473,
            31.601053
          ],
          [
            -106.3716512,
            31.6073052
          ],
          [
            -106.365811,
            31.612491
          ],
          [
            -106.357493,
            31.620045
          ],
          [
            -106.3561244,
            31.6243446
          ],
          [
            -106.3550538,
            31.625791
          ],
          [
            -106.35173,
            31.628023
          ],
          [
            -106.3481703,
            31.6306879
          ],
          [
            -106.3472058,
            31.633619
          ],
          [
            -106.346606,
            31.63655
          ],
          [
            -106.346723,
            31.636918
          ],
          [
            -106.3472091,
            31.6377744
          ],
          [
            -106.3480316,
            31.6413265
          ],
          [
            -106.3461288,
            31.645381
          ],
          [
            -106.3443236,
            31.6482065
          ],
          [
            -106.3434854,
            31.6507153
          ],
          [
            -106.3421106,
            31.6531327
          ],
          [
            -106.3407546,
            31.6547636
          ],
          [
            -106.3396477,
            31.6560134
          ],
          [
            -106.3377682,
            31.6574002
          ],
          [
            -106.3353397,
            31.6588404
          ],
          [
            -106.3343205,
            31.6593206
          ],
          [
            -106.3332013,
            31.6601043
          ],
          [
            -106.33342,
            31.660603
          ],
          [
            -106.3359293,
            31.6635322
          ],
          [
            -106.33831,
            31.669146
          ],
          [
            -106.342658,
            31.679156
          ],
          [
            -106.34596,
            31.686516
          ],
          [
            -106.346803,
            31.688396
          ],
          [
            -106.3488657,
            31.6927278
          ],
          [
            -106.3498971,
            31.6949394
          ],
          [
            -106.351186,
            31.696731
          ],
          [
            -106.3531627,
            31.6982878
          ],
          [
            -106.3652035,
            31.7062979
          ],
          [
            -106.3725368,
            31.7111202
          ],
          [
            -106.3736591,
            31.7121157
          ],
          [
            -106.3750142,
            31.7141285
          ],
          [
            -106.3771633,
            31.7208597
          ],
          [
            -106.3790098,
            31.7272366
          ],
          [
            -106.3795146,
            31.7284024
          ],
          [
            -106.3804163,
            31.729696
          ],
          [
            -106.3827738,
            31.7317804
          ],
          [
            -106.3889568,
            31.735026
          ],
          [
            -106.3908971,
            31.7324323
          ],
          [
            -106.3924286,
            31.7302546
          ],
          [
            -106.3927756,
            31.729741
          ],
          [
            -106.3930367,
            31.7277582
          ],
          [
            -106.3934914,
            31.7245755
          ],
          [
            -106.394365,
            31.724715
          ],
          [
            -106.3958028,
            31.7247605
          ],
          [
            -106.3959147,
            31.7235285
          ],
          [
            -106.3968719,
            31.7215879
          ]
        ]
      }
    },
    {
      "type": "Feature",
      "properties": {
        "nombre": "Recorrido real — San Jose - B — 5486 — 2026-07-20",
        "tipo": "recorrido_real",
        "unidad": "5486",
        "fecha": "2026-07-20",
        "routeMatchPct": 50.943396226415096,
        "corridorPrecisionPct": 86.82170542635659,
        "frechetKm": 3.530519709744474
      },
      "geometry": {
        "type": "LineString",
        "coordinates": [
          [
            -106.332693,
            31.570951
          ],
          [
            -106.332678,
            31.571151
          ],
          [
            -106.332651,
            31.571163
          ],
          [
            -106.332616,
            31.571165
          ],
          [
            -106.332556,
            31.571131
          ],
          [
            -106.33255,
            31.571035
          ],
          [
            -106.335703,
            31.567456
          ],
          [
            -106.336003,
            31.567113
          ],
          [
            -106.338066,
            31.564863
          ],
          [
            -106.340085,
            31.562756
          ],
          [
            -106.34019,
            31.5627
          ],
          [
            -106.340271,
            31.562688
          ],
          [
            -106.344401,
            31.56639
          ],
          [
            -106.346868,
            31.568645
          ],
          [
            -106.349451,
            31.570965
          ],
          [
            -106.353823,
            31.574873
          ],
          [
            -106.35822,
            31.57943
          ],
          [
            -106.361881,
            31.582568
          ],
          [
            -106.366621,
            31.584731
          ],
          [
            -106.370235,
            31.587695
          ],
          [
            -106.372063,
            31.589275
          ],
          [
            -106.37389,
            31.591283
          ],
          [
            -106.374226,
            31.592176
          ],
          [
            -106.374226,
            31.592176
          ],
          [
            -106.374938,
            31.594225
          ],
          [
            -106.377663,
            31.600013
          ],
          [
            -106.378526,
            31.60098
          ],
          [
            -106.37459,
            31.604636
          ],
          [
            -106.367358,
            31.611121
          ],
          [
            -106.359051,
            31.618466
          ],
          [
            -106.353205,
            31.62697
          ],
          [
            -106.346678,
            31.635371
          ],
          [
            -106.346998,
            31.637346
          ],
          [
            -106.347646,
            31.642068
          ],
          [
            -106.345945,
            31.64534
          ],
          [
            -106.343335,
            31.650373
          ],
          [
            -106.343335,
            31.650373
          ],
          [
            -106.343335,
            31.650373
          ],
          [
            -106.343306,
            31.650496
          ],
          [
            -106.33919,
            31.656096
          ],
          [
            -106.334433,
            31.659156
          ],
          [
            -106.33301,
            31.660148
          ],
          [
            -106.334148,
            31.661386
          ],
          [
            -106.338021,
            31.668598
          ],
          [
            -106.341801,
            31.677216
          ],
          [
            -106.345381,
            31.68521
          ],
          [
            -106.348395,
            31.69188
          ],
          [
            -106.354238,
            31.699096
          ],
          [
            -106.362235,
            31.704423
          ],
          [
            -106.37014,
            31.70963
          ],
          [
            -106.372025,
            31.710893
          ],
          [
            -106.37593,
            31.716865
          ],
          [
            -106.376948,
            31.720341
          ],
          [
            -106.377063,
            31.720733
          ],
          [
            -106.377063,
            31.720733
          ],
          [
            -106.377963,
            31.72392
          ],
          [
            -106.37932,
            31.728145
          ],
          [
            -106.382703,
            31.731821
          ],
          [
            -106.388145,
            31.734805
          ],
          [
            -106.388791,
            31.735155
          ],
          [
            -106.38903,
            31.735148
          ],
          [
            -106.390413,
            31.733246
          ],
          [
            -106.390456,
            31.733208
          ],
          [
            -106.392748,
            31.730028
          ],
          [
            -106.392863,
            31.72978
          ],
          [
            -106.393296,
            31.727116
          ],
          [
            -106.393671,
            31.724638
          ],
          [
            -106.395826,
            31.724701
          ],
          [
            -106.395826,
            31.724701
          ],
          [
            -106.396926,
            31.721548
          ],
          [
            -106.397041,
            31.721463
          ],
          [
            -106.397126,
            31.721496
          ],
          [
            -106.397156,
            31.72157
          ],
          [
            -106.397096,
            31.721645
          ],
          [
            -106.397036,
            31.72163
          ],
          [
            -106.397191,
            31.721606
          ],
          [
            -106.397191,
            31.721606
          ],
          [
            -106.397191,
            31.721606
          ],
          [
            -106.397191,
            31.721606
          ],
          [
            -106.397191,
            31.721606
          ],
          [
            -106.397191,
            31.721606
          ],
          [
            -106.397191,
            31.721606
          ],
          [
            -106.397191,
            31.721606
          ],
          [
            -106.397191,
            31.721606
          ],
          [
            -106.397191,
            31.721606
          ],
          [
            -106.397191,
            31.721606
          ],
          [
            -106.397191,
            31.721606
          ],
          [
            -106.397191,
            31.721606
          ],
          [
            -106.397191,
            31.721606
          ],
          [
            -106.397191,
            31.721606
          ],
          [
            -106.397191,
            31.721606
          ],
          [
            -106.397191,
            31.721606
          ],
          [
            -106.397191,
            31.721606
          ],
          [
            -106.397191,
            31.721606
          ],
          [
            -106.397191,
            31.721606
          ],
          [
            -106.397191,
            31.721606
          ],
          [
            -106.397191,
            31.721606
          ],
          [
            -106.397191,
            31.721606
          ],
          [
            -106.397191,
            31.721606
          ],
          [
            -106.397191,
            31.721606
          ],
          [
            -106.397191,
            31.721606
          ],
          [
            -106.397191,
            31.721606
          ],
          [
            -106.397191,
            31.721606
          ],
          [
            -106.397191,
            31.721606
          ],
          [
            -106.397191,
            31.721606
          ],
          [
            -106.397191,
            31.721606
          ],
          [
            -106.397191,
            31.721606
          ],
          [
            -106.39717,
            31.721603
          ],
          [
            -106.39717,
            31.721603
          ],
          [
            -106.397008,
            31.721401
          ],
          [
            -106.397041,
            31.72131
          ],
          [
            -106.397388,
            31.720725
          ],
          [
            -106.397765,
            31.719985
          ],
          [
            -106.397886,
            31.720026
          ],
          [
            -106.399465,
            31.722383
          ],
          [
            -106.405258,
            31.727165
          ],
          [
            -106.411586,
            31.731596
          ],
          [
            -106.413973,
            31.732663
          ],
          [
            -106.413973,
            31.732663
          ],
          [
            -106.414023,
            31.73268
          ],
          [
            -106.4208,
            31.733318
          ],
          [
            -106.42091,
            31.733321
          ],
          [
            -106.423208,
            31.733055
          ],
          [
            -106.423208,
            31.733055
          ],
          [
            -106.423208,
            31.733055
          ],
          [
            -106.424556,
            31.732856
          ],
          [
            -106.424613,
            31.732738
          ],
          [
            -106.424586,
            31.731926
          ],
          [
            -106.424588,
            31.728085
          ]
        ]
      }
    }
  ]
}